{"type":"FeatureCollection","features":[{"type":"Feature","properties":{"name":"Barnsley","code":"E08000016"},"geometry":{"type":"Polygon","coordinates":[[[-1.34873341137308,53.5833476291574],[-1.34766547010069,53.5832510743565],[-1.34717021486624,53.5823531345793],[-1.34751348947386,53.5796873189011],[-1.34679263801323,53.5797157486451],[-1.34495103978326,53.5781821887232],[-1.34487329981278,53.5777422734468],[-1.34572720601871,53.5769271609937],[-1.34487766583941,53.5764875323586],[-1.34179128796364,53.5723666115204],[-1.3392235066484,53.5700712208349],[-1.33564130166746,53.5657578170041],[-1.33260089053578,53.5637185132777],[-1.33088911874117,53.5617001176623],[-1.32895051174588,53.5608569352326],[-1.32773641948781,53.5599252329493],[-1.3267220358575,53.5586872396848],[-1.32680704640604,53.5581853261754],[-1.32275994636758,53.5574254464461],[-1.32075158832382,53.5582230734842],[-1.32010003290985,53.558191526441],[-1.31722619459727,53.5576080179406],[-1.31509037944982,53.5561865128463],[-1.30404273817122,53.5547700753664],[-1.30128013305692,53.5530381951724],[-1.29765726882895,53.5514962159239],[-1.29365229635005,53.5469722765679],[-1.28856734640527,53.5438349143589],[-1.28788058081594,53.5410515964587],[-1.28935389240689,53.5407493402038],[-1.28698197356202,53.5376701283126],[-1.29380884811291,53.5358104050817],[-1.28964997661247,53.53403569855],[-1.28781171743899,53.5320922506815],[-1.28665861486421,53.5328413777717],[-1.28534259271866,53.5328676761879],[-1.28454593033947,53.5323307664628],[-1.28504426144945,53.5315895228575],[-1.28399308884453,53.5305819299479],[-1.28322876434958,53.5303660955472],[-1.28132274858403,53.5314736946428],[-1.2802476168144,53.5314465678082],[-1.27974432776262,53.5311460142525],[-1.27992207186161,53.5308891850306],[-1.27603833106417,53.5303920178544],[-1.27572648676218,53.5298373120097],[-1.27582963154719,53.5281184619145],[-1.28139717263897,53.5289456584039],[-1.28325558245893,53.5272535025219],[-1.28539388890661,53.5278370777033],[-1.28617228194707,53.5267603450661],[-1.27650448582045,53.5206332517836],[-1.27849182679417,53.519336529397],[-1.28128337823297,53.516492277089],[-1.28278039818449,53.5165201288776],[-1.28316071299772,53.5156972247182],[-1.28631924236283,53.5145880884622],[-1.28769514413143,53.5150070321006],[-1.28861579728058,53.5157711038583],[-1.29369971932597,53.5152178343822],[-1.29507306294322,53.5153464312072],[-1.29659781937981,53.5149743033131],[-1.29939021029425,53.5151901666091],[-1.30373010290537,53.513834879228],[-1.30764681392164,53.5138198559545],[-1.31027356585099,53.5128121399998],[-1.31130092382027,53.5128836526688],[-1.31140619482573,53.5137381115775],[-1.31244277467456,53.5137944807151],[-1.31527919443433,53.5128777188104],[-1.31846812825143,53.5130990038519],[-1.31977559462226,53.5138480766973],[-1.32063800361693,53.5139572237971],[-1.32241828630145,53.5131466405597],[-1.32465096992668,53.5130936883101],[-1.3260112770791,53.5123292906276],[-1.3282970461603,53.513398298746],[-1.32945892785236,53.5144097385889],[-1.33055539336318,53.5146837643161],[-1.33458515368499,53.514382696502],[-1.34138768420085,53.5147898401584],[-1.34504942972553,53.513997469629],[-1.35028412113142,53.5139784521459],[-1.36014808705646,53.5129682175335],[-1.36886685466225,53.5153272942522],[-1.36930590549617,53.5143939552781],[-1.37057518921436,53.5147331916496],[-1.37813194513942,53.5142008417802],[-1.37905012207418,53.5145264848356],[-1.38009949340725,53.5142280824856],[-1.39560315685931,53.5065059864584],[-1.39699430525246,53.5056976980572],[-1.39631085200222,53.5053014757736],[-1.40558225965699,53.5048463445461],[-1.40554344434229,53.5043948749262],[-1.40720134123079,53.503997733298],[-1.40806656887118,53.5032550059346],[-1.40862948304239,53.5033234743195],[-1.41215372297225,53.4992357450531],[-1.40970089786568,53.4984793692845],[-1.41081111557914,53.4969082403327],[-1.41173722824739,53.4962144006388],[-1.4164873325318,53.4944336076971],[-1.41685300764448,53.4936058001987],[-1.41555438430042,53.4932272690142],[-1.41517833108485,53.4925117635156],[-1.41707103888713,53.4922144795881],[-1.41917849929105,53.4910858331278],[-1.41981666149844,53.4912660421802],[-1.41991740315548,53.489838293043],[-1.42211093636482,53.489795793937],[-1.42277678899155,53.4902700531419],[-1.42434311627858,53.4895693163222],[-1.42553681981335,53.4886770771873],[-1.42606798819184,53.487401453139],[-1.42796513905113,53.4858537045105],[-1.43300969037767,53.4879611992661],[-1.43560903709316,53.4884445295608],[-1.44105081986194,53.4911054889725],[-1.44263494014941,53.4899525133387],[-1.44347354201303,53.4885235952061],[-1.4522066569649,53.4849288635854],[-1.45077679441129,53.4822365667463],[-1.45044456092228,53.477393730849],[-1.45175820638653,53.4762429845554],[-1.45678991086165,53.4735648211677],[-1.4552192140429,53.4717509446572],[-1.45652442031213,53.4719348938311],[-1.46031711125827,53.4757883854543],[-1.46164502455611,53.4763391014841],[-1.46386840720898,53.4780407045187],[-1.46577083421564,53.4783278705689],[-1.4666714279294,53.4779966200187],[-1.47589589253067,53.479424368468],[-1.47769498540093,53.4799130767966],[-1.47982630337263,53.4809623138293],[-1.48405438090886,53.4844421249478],[-1.48748192085533,53.4860109673675],[-1.49158858383921,53.4866414870523],[-1.49474873428307,53.4862692658824],[-1.49525089852033,53.4852161607491],[-1.4946189031544,53.4810742818059],[-1.495239289688,53.4803568494939],[-1.50016740489798,53.4756576289746],[-1.50500231402965,53.4717766600671],[-1.50757662856172,53.4684407628277],[-1.50785532071994,53.4666207964307],[-1.51177871851371,53.4657587129068],[-1.51481383416335,53.4636667748752],[-1.51486216559401,53.4618054274082],[-1.51631303542247,53.4605852430425],[-1.51503008678527,53.4596389509339],[-1.51739747874521,53.45832721242],[-1.51670908956319,53.4579406441758],[-1.51818242076789,53.4572418112322],[-1.51492574667192,53.4538660883528],[-1.51317073618626,53.4514230214298],[-1.51653262662157,53.4502914883891],[-1.51833245776908,53.4493190069783],[-1.51916260563861,53.4472828642201],[-1.51980148868259,53.4471154945207],[-1.52067003372621,53.4457922663175],[-1.52059574191839,53.444641398762],[-1.5232419949581,53.4430807269859],[-1.52374673796404,53.4413065469561],[-1.52458837709233,53.4404919684709],[-1.52554235894585,53.4402629137199],[-1.5263640314224,53.4390742458537],[-1.52771716423158,53.4385529061084],[-1.53193637878857,53.4387222025803],[-1.53217244984442,53.4383393294906],[-1.5329268641654,53.4383153110999],[-1.53398944131021,53.4386106797219],[-1.53498354669671,53.4399358393005],[-1.53740462026711,53.4408782081293],[-1.54080134471214,53.440980206716],[-1.54618420191477,53.4418878555464],[-1.54811200444402,53.444790318912],[-1.55126185631079,53.4462043893524],[-1.55043677144614,53.4476295353118],[-1.5473833460355,53.4498859513614],[-1.54873433905802,53.4511295706926],[-1.55254929277113,53.4527798305853],[-1.55138413683591,53.455454920319],[-1.54114296590892,53.4559196460642],[-1.54026087571888,53.4561589852868],[-1.54055018395719,53.4569753011512],[-1.53945462488227,53.4577288949468],[-1.54031784676162,53.4610507238251],[-1.53986157038236,53.4616026929812],[-1.53904691905296,53.4617154899714],[-1.53947447860849,53.4625764587762],[-1.54234466881938,53.4650179494542],[-1.54537329927907,53.4698490685083],[-1.54812048058338,53.4713317787728],[-1.5444863076146,53.4722106363294],[-1.54362863536164,53.4726675533716],[-1.54422288989439,53.4727497838896],[-1.54656659121061,53.4746300648851],[-1.5496581099153,53.4784942354161],[-1.55735896426504,53.4802656645051],[-1.55774365858707,53.4822427293653],[-1.55892969677418,53.4833940510935],[-1.56107292180626,53.4839574065467],[-1.5611597945175,53.4844376625241],[-1.5622967537235,53.4843735133825],[-1.56505969236984,53.4849049043583],[-1.56521357527702,53.485483436358],[-1.56641543195287,53.4858571887766],[-1.56575648381842,53.4860408197758],[-1.569153593439,53.4864683750603],[-1.57488936237473,53.4860204739906],[-1.5763542628994,53.486166821012],[-1.58229495597931,53.4875655436729],[-1.58701990997041,53.4881598952477],[-1.59036317466649,53.4899906950013],[-1.60222759871376,53.4919075740575],[-1.60237072877647,53.4915916519119],[-1.60659084349599,53.4929071721749],[-1.60935302652044,53.4916686118402],[-1.60960376357239,53.4922555029107],[-1.61150937124132,53.4932064256992],[-1.61445802541691,53.4931539768917],[-1.61494721540958,53.4905676561585],[-1.62326076980052,53.4920899027767],[-1.633832964151,53.4923906639202],[-1.63898697059797,53.4933663386248],[-1.64126140383285,53.4940805769927],[-1.64929138691473,53.4951012534882],[-1.6550899928061,53.4967963714088],[-1.6588426425518,53.4983954203481],[-1.66836778834548,53.5005722817037],[-1.68044939311894,53.5005222660355],[-1.6811157315059,53.4999272839228],[-1.6839847191014,53.4988867525308],[-1.68446725821812,53.4994677893928],[-1.68787897043691,53.4990282141354],[-1.68879631378782,53.4991204513652],[-1.68897608906294,53.4996916990772],[-1.69051560696996,53.4998430423348],[-1.69071129936715,53.4994597593303],[-1.69337126022761,53.500188319715],[-1.69845750935049,53.502541825241],[-1.70108876364153,53.5031209751318],[-1.70298234629538,53.5028982362541],[-1.7033047908741,53.5018464286825],[-1.70444532732586,53.5017270302188],[-1.70546730057955,53.5011012469714],[-1.70606619739867,53.5016905674736],[-1.70727905580846,53.5013555678937],[-1.7110094090154,53.5012594576642],[-1.71184692737289,53.4998098029759],[-1.71280239204973,53.499623295895],[-1.71229309359326,53.4986962645472],[-1.71406551700521,53.4978583370375],[-1.71365442772668,53.4966681690139],[-1.71566118739699,53.4954693638566],[-1.71607597294494,53.4940825660427],[-1.71725556598046,53.4939396854048],[-1.71951871967198,53.4929293122374],[-1.72003803167461,53.4923480576353],[-1.72150418808184,53.4926337092445],[-1.72143006927075,53.4919773890827],[-1.72280754949395,53.4915293009971],[-1.7303659519463,53.4913218381823],[-1.73198288405881,53.4908966458687],[-1.73357851070062,53.4880930940809],[-1.73538567886341,53.4866041720227],[-1.73611597802976,53.4837896951102],[-1.73767118003426,53.4815711685049],[-1.73645808109141,53.4806103485718],[-1.73632530070473,53.4794217664779],[-1.7385030596915,53.4771389563763],[-1.73967801413894,53.4771819602507],[-1.74049038049994,53.4778713514105],[-1.74142771871581,53.4781025640539],[-1.74205557977436,53.4789218617132],[-1.74312321831242,53.4792791944052],[-1.74647743973438,53.4789986987653],[-1.74911670496407,53.4798626367099],[-1.75108279950756,53.4799071778423],[-1.7574605429372,53.4810501116634],[-1.76051643649985,53.4807641308185],[-1.76189847789761,53.4812495125657],[-1.76277637627534,53.4810948951319],[-1.76398015663193,53.4813983823045],[-1.7659410011809,53.4810426945147],[-1.77103428121388,53.4824052839963],[-1.77386667434796,53.4825050426341],[-1.78053265212195,53.4843465719821],[-1.78363475618131,53.4847791633615],[-1.78695920881159,53.4844570468019],[-1.79028390872328,53.482543897858],[-1.79208019338314,53.4819088562721],[-1.80143009642957,53.4809625497659],[-1.80146466287506,53.4809874580227],[-1.80147063244941,53.4809917598487],[-1.80185615978979,53.4865463518981],[-1.80024993501943,53.4881067704306],[-1.80029579035267,53.4927997098644],[-1.79987276672888,53.4930111592245],[-1.80026299053966,53.4933551633381],[-1.7997089314362,53.493549230337],[-1.79817398621933,53.4933493859492],[-1.7976369161835,53.4938642356517],[-1.79584677809681,53.4942860976158],[-1.7958556319897,53.4952658425142],[-1.79500092224839,53.4959187300478],[-1.79534683477433,53.4967138537822],[-1.79508196676373,53.498191124635],[-1.7958655876539,53.499493082278],[-1.79565952918242,53.5009668507449],[-1.79608145837437,53.501317208705],[-1.79628821898355,53.5031529896704],[-1.79671853214442,53.5030305834058],[-1.79710276894056,53.5037035882282],[-1.7990340361147,53.5046659078334],[-1.80395015358775,53.5050731505476],[-1.80775994711488,53.5060995066529],[-1.81039889127308,53.5063401484474],[-1.80077865319122,53.5113785283363],[-1.80687045494961,53.5120905106375],[-1.8099324522044,53.5118932594867],[-1.81360025733534,53.5120976367837],[-1.81952377656311,53.5134280910315],[-1.82079325774115,53.518507400273],[-1.82258927530432,53.5200183161146],[-1.82222878111984,53.521090920901],[-1.80428301600162,53.5370133725765],[-1.80410250253883,53.5365546262522],[-1.80125625200754,53.5351046850134],[-1.79743124240259,53.533887563438],[-1.79463725394291,53.5341965171596],[-1.79170297534893,53.5353824417185],[-1.78859566608884,53.5355549363411],[-1.7853481372771,53.5347888081014],[-1.7768109503124,53.5355075739024],[-1.77187711533163,53.5338525672006],[-1.76549452622074,53.5356586330476],[-1.75581896258099,53.5366810582393],[-1.74250003979816,53.5410529975733],[-1.74155538329141,53.5410707341561],[-1.7401096930317,53.542069791485],[-1.73309643260959,53.5451284168731],[-1.73008274770267,53.5467916746183],[-1.72920745902528,53.547502541206],[-1.72955864881171,53.5480443654589],[-1.72880233473255,53.548084082472],[-1.72724857209584,53.5503285232055],[-1.72440780165785,53.552235633406],[-1.72636001194914,53.5544970489188],[-1.72526579308118,53.5554068687782],[-1.7231775076069,53.5599267406204],[-1.70397735943532,53.560252993036],[-1.69903667978221,53.5538105063065],[-1.6706028312113,53.5541537395606],[-1.66946580092353,53.5532275154462],[-1.66870421362,53.5537332862868],[-1.66740100500979,53.5534231876355],[-1.66191052764474,53.5536928289477],[-1.66225028457177,53.5544469550527],[-1.66160241308981,53.5546770528472],[-1.66175341811789,53.5558172092441],[-1.66393036379029,53.5575013744578],[-1.66086897620571,53.5595915490471],[-1.66046541666913,53.559267732677],[-1.65927769603742,53.5598018036406],[-1.65852561613704,53.5588909446154],[-1.65751179489606,53.5591891683452],[-1.6580490936267,53.5597659629814],[-1.65635479390758,53.5603849120936],[-1.65656026625189,53.5605581147563],[-1.65188344830996,53.5607297511141],[-1.65134956901868,53.5608531946979],[-1.65159045327735,53.5611082761412],[-1.65101443247899,53.5615883276789],[-1.64969381240443,53.5615341736649],[-1.64823447446973,53.5621950344792],[-1.64215554257727,53.5624683398252],[-1.63780448215561,53.562296280631],[-1.63349146959582,53.5629582155966],[-1.63330079159557,53.5631867645891],[-1.62830840078264,53.5634923326236],[-1.62797087321003,53.5632414950737],[-1.62704074044577,53.5635981261323],[-1.62283488800506,53.5628732000194],[-1.61813179599836,53.5632295671368],[-1.61563188440644,53.5630283208822],[-1.61643986233469,53.5645139515112],[-1.61439501240776,53.5650691788404],[-1.61304629430744,53.5664435718318],[-1.61216435003252,53.5676262711793],[-1.61215693915732,53.5687703684059],[-1.61080753438416,53.5700494912193],[-1.60981495163496,53.5719202827305],[-1.60719116068833,53.5715055026825],[-1.60618878223602,53.5729466363573],[-1.59837267232437,53.5766004391424],[-1.59619871324849,53.5769869074176],[-1.59745240380139,53.5772895269023],[-1.6002656679643,53.5773393515222],[-1.59967397499056,53.5790657748967],[-1.59856121253791,53.5791816625762],[-1.59798804749274,53.579743238159],[-1.59928625733893,53.5807749937353],[-1.60070429446697,53.5811221571218],[-1.60231069398508,53.5829673882414],[-1.60212431667185,53.5841568349826],[-1.60257322027318,53.5849357639923],[-1.60039966177558,53.586203987031],[-1.60175211286839,53.5877589589554],[-1.59928541956153,53.5888563597634],[-1.59961574851599,53.5892385436661],[-1.59796907128698,53.5893983834496],[-1.59767561081131,53.590238732049],[-1.59493172302884,53.5909099107658],[-1.5908546427965,53.592421419332],[-1.58963188743935,53.5938886574157],[-1.58887422336849,53.5934923141174],[-1.58797836748171,53.5934865500521],[-1.5865058414338,53.5968305482497],[-1.58614294058923,53.5990251314846],[-1.58661699060812,53.5998429328608],[-1.58570339803923,53.6002487252201],[-1.58515252299966,53.6001785337273],[-1.58519142647103,53.6005318948112],[-1.58561815833187,53.6020092655373],[-1.58689888478175,53.6037852021083],[-1.58756094500275,53.6034594095353],[-1.58807328379258,53.6037685668261],[-1.59115126334538,53.6067811923949],[-1.58993917429971,53.6071042303173],[-1.58810727782597,53.6064885570629],[-1.58645325959614,53.6071740546689],[-1.58529611288679,53.6066657913002],[-1.58531808687313,53.6062668132243],[-1.58353208189341,53.605619777977],[-1.58044119662802,53.6061007220495],[-1.57720476504373,53.6075364308048],[-1.57313567104788,53.6081934531858],[-1.57207348026449,53.6086112830115],[-1.56615519056458,53.6066584970063],[-1.56464419596203,53.6069235007642],[-1.56291770807102,53.607710038824],[-1.56045276872154,53.6075517947726],[-1.55977192160267,53.6071888855907],[-1.55995264643162,53.6066691869655],[-1.55873515556987,53.6069019441437],[-1.5575931369204,53.6061229979012],[-1.55766152307287,53.6056477277048],[-1.55706950082276,53.6051844910919],[-1.55070528483586,53.6043509781758],[-1.54989213849182,53.6040801602822],[-1.54898302114051,53.6031572446146],[-1.54732676271895,53.6031653913267],[-1.54786527105542,53.6025472272406],[-1.54654764163793,53.602257323405],[-1.5464374939268,53.6012448491293],[-1.54466281757912,53.5994790940588],[-1.54295154012889,53.5992649349182],[-1.54243301120388,53.5984450815944],[-1.5416026680976,53.5988005351241],[-1.54179239347121,53.598306866132],[-1.54117958175274,53.5976834341417],[-1.53980940943776,53.5975119567213],[-1.53977667218727,53.5964997717932],[-1.53926946249841,53.5964581996816],[-1.53792630753266,53.5951955802122],[-1.53655455875304,53.5951768160368],[-1.5369553269271,53.5948682651897],[-1.53631995238102,53.5946672294642],[-1.53643111508278,53.593763426475],[-1.53488752030614,53.5939929740694],[-1.53338490198918,53.5936554829724],[-1.5321351041521,53.593810566197],[-1.53078144404236,53.593129379024],[-1.5302864333109,53.5933512784012],[-1.53124074384664,53.593804383018],[-1.52983276115155,53.5940685402868],[-1.52838099818935,53.597033436276],[-1.52435250192054,53.597722299152],[-1.51867106657984,53.5997192957791],[-1.51773898656641,53.5986370090816],[-1.5162819479615,53.5977386235107],[-1.51587734484758,53.5979734144913],[-1.5129041216994,53.5970023098159],[-1.51087092746977,53.597214323443],[-1.51036420901772,53.5968608356379],[-1.50985652479773,53.5969899654255],[-1.51045976838199,53.5974859118557],[-1.50804777301056,53.5983003606226],[-1.50722520860253,53.5976920835415],[-1.50153876331276,53.5999067975319],[-1.49656246300737,53.5973737488559],[-1.49511957803327,53.6031902320806],[-1.49158079213534,53.6027690067355],[-1.49293704198975,53.5986725213154],[-1.49198270549449,53.5968537292058],[-1.48949243389886,53.5962409218911],[-1.48508916774279,53.5970013996461],[-1.48431328109929,53.5949576774311],[-1.48370858443037,53.5948687907118],[-1.48125815164997,53.5963349092592],[-1.47928639718086,53.5969527670047],[-1.47856944515147,53.5983598296432],[-1.47485974734077,53.600093542924],[-1.47399577474822,53.6014046852745],[-1.47295422153731,53.6008337962709],[-1.46042018488869,53.606036607848],[-1.45907298563109,53.6062021135078],[-1.45550687549059,53.6077003711893],[-1.44804017978121,53.6116945174812],[-1.44763061376209,53.6127388197822],[-1.44689795623611,53.6123570354983],[-1.4468521879818,53.6126165991479],[-1.44464725133234,53.6105273303249],[-1.44187603208808,53.6094403224191],[-1.43919312584708,53.6070620564635],[-1.43844818546975,53.6071681721974],[-1.43800828707883,53.6067211251285],[-1.4365567050791,53.6065471322657],[-1.43554592388372,53.6081126018376],[-1.43425981409977,53.608111008648],[-1.433945464202,53.6086740064812],[-1.43344550534002,53.6085340702249],[-1.43292460301189,53.608942432423],[-1.43201539418469,53.6084509151634],[-1.43244220280503,53.6081823781867],[-1.43192186247538,53.6082059692053],[-1.43007102539854,53.6068148016172],[-1.42919598367107,53.6065948833612],[-1.42945952749299,53.6055445347133],[-1.42867862940173,53.6049538574191],[-1.42504929044271,53.6045652673386],[-1.42327756092087,53.6034969501673],[-1.42161792261953,53.6031932129452],[-1.41901194345916,53.6032354855813],[-1.41902569357237,53.6037747939749],[-1.41751155868477,53.6033288424043],[-1.41529364474685,53.6032794208081],[-1.4127550562074,53.6013030758556],[-1.4080686371617,53.6012044864811],[-1.40724969905226,53.6014135005553],[-1.40686831893499,53.6010224379261],[-1.40596109608453,53.6010592868748],[-1.40525098035548,53.600407707761],[-1.40173725901889,53.6002122358288],[-1.4003598366971,53.5986710214322],[-1.39613625537657,53.5998309548735],[-1.39533099975951,53.6005604205571],[-1.39421581909447,53.6006581356895],[-1.39276918955159,53.6014228947957],[-1.38417868489233,53.6037575201329],[-1.38160137730716,53.6054448526991],[-1.37902419528164,53.6065937852466],[-1.37670296002844,53.6064784179005],[-1.37618355668186,53.6060325355544],[-1.37142459231687,53.6048940896927],[-1.3691352991866,53.6040578040756],[-1.36843516710295,53.6034806431215],[-1.3660370141229,53.6028594790625],[-1.36384504409195,53.6018061504708],[-1.36244581251264,53.6006895090247],[-1.3602269289794,53.5986284106454],[-1.35992640384472,53.5968201356346],[-1.35611963714612,53.5953662136853],[-1.35462044102203,53.5921160404213],[-1.35629258828417,53.5893619826469],[-1.35628452773562,53.5887058017019],[-1.35459124756342,53.5862168438791],[-1.35390000506374,53.5834043718785],[-1.35143412568259,53.5810810413007],[-1.34873341137308,53.5833476291574]]]}},{"type":"Feature","properties":{"name":"Doncaster","code":"E08000017"},"geometry":{"type":"Polygon","coordinates":[[[-0.989984320408114,53.6589797586554],[-0.957796113541597,53.658525688556],[-0.947625407619717,53.6586623076046],[-0.946844642823067,53.6591417665831],[-0.939876002330261,53.6575800815962],[-0.92217378777718,53.6525206785597],[-0.865338726025611,53.6377082321425],[-0.881359246368496,53.6169598085801],[-0.887392601501844,53.609958140621],[-0.886665737027111,53.6093581730957],[-0.886897108082056,53.6010269297001],[-0.897926451077773,53.5832774376931],[-0.896237894177222,53.5829167184803],[-0.901117807880235,53.5687242257127],[-0.890995208077955,53.5665589813911],[-0.891859918475636,53.5653076608452],[-0.893873835549236,53.5658385984502],[-0.894309507119533,53.5655783394441],[-0.900302887578595,53.5556587547458],[-0.900504467757635,53.5496273290807],[-0.901265910078631,53.5479084243491],[-0.899804403691091,53.5444342956767],[-0.895593642434499,53.5420602378197],[-0.892295380495885,53.5374669629442],[-0.897313289308849,53.5329641073529],[-0.898068493122077,53.5327589006688],[-0.900436196432135,53.5326233377525],[-0.908194548928957,53.5336678813667],[-0.925260380916239,53.532600916428],[-0.934328799729974,53.5300446698691],[-0.943715825340442,53.5306430177669],[-0.946543521176502,53.5273420552177],[-0.946058631417691,53.5271886118153],[-0.948473546030531,53.5203729450254],[-0.947917107347662,53.5195158857949],[-0.950009087300711,53.5136574335677],[-0.932094163383945,53.510671822715],[-0.935774344597495,53.5028141337167],[-0.935360427661711,53.5027232828569],[-0.935564625288195,53.5025165284893],[-0.953259205587141,53.4844235283874],[-0.976869578817061,53.4751769552038],[-0.981625128162257,53.4747178134239],[-0.985978085087804,53.4716733710931],[-0.983297315425888,53.4680414954632],[-0.985547613494418,53.4613539670894],[-0.99364603915785,53.452958410048],[-0.991178527360789,53.4517232031224],[-0.994308671909255,53.4489360393905],[-0.994821714789703,53.4471021143831],[-0.997518157485324,53.4436550467849],[-0.997131907936771,53.4424761287473],[-0.998483373599442,53.43884423264],[-0.995918868532869,53.4378555310534],[-0.995669798894032,53.4369266834287],[-1.00037701375699,53.4349984888998],[-1.00296336720582,53.434726141716],[-1.00509533692172,53.4337991710984],[-1.00867839100587,53.4339008207058],[-1.00989255377871,53.4328250667296],[-1.01245806584945,53.4327958706793],[-1.0128140629368,53.4322406714118],[-1.01253318586004,53.4307201191897],[-1.01429693235662,53.4272802521961],[-1.01434673955409,53.4262954956639],[-1.0181752188441,53.4267593256045],[-1.02243087078001,53.4263141476886],[-1.0231689421522,53.4245143849214],[-1.02711536469857,53.4250157350167],[-1.02782543061705,53.425420591593],[-1.03051529485536,53.425195309492],[-1.02884046459853,53.4292878192229],[-1.03070893975066,53.4299205178419],[-1.0309498187762,53.4309795254991],[-1.03652587814237,53.4305293518614],[-1.04026379089613,53.4297566682863],[-1.04458909062314,53.4280888578266],[-1.05576659456324,53.4253137096183],[-1.0571993195164,53.4253835119773],[-1.06785723664105,53.427722335517],[-1.06794322667044,53.427370653207],[-1.07112907261817,53.4280022019765],[-1.07326792409618,53.4280574415876],[-1.07467040852741,53.4273077965687],[-1.08043943279743,53.426867859038],[-1.08003509702176,53.4251747866],[-1.07898036174969,53.4235630613831],[-1.07912295943339,53.4228091307237],[-1.08119995999615,53.4225850875355],[-1.083329712153,53.4229879370835],[-1.08414737605698,53.4235245750168],[-1.08486667123666,53.4248586176321],[-1.08704609824437,53.4255440491046],[-1.09292209502352,53.4215455979634],[-1.09867232096764,53.4188197200118],[-1.10504125598448,53.4096665284251],[-1.10841876723185,53.4057672839128],[-1.11163305968935,53.4060671997241],[-1.11604100602787,53.4073493528943],[-1.11627077778226,53.408531222992],[-1.11569218028795,53.4095894807551],[-1.11614035380603,53.4101743900356],[-1.11804557196485,53.410941700242],[-1.11892221860135,53.4102362749661],[-1.12104175917938,53.4100981298486],[-1.12209553792303,53.4103530903844],[-1.12380241214943,53.4098703852796],[-1.13339767628057,53.4087430364382],[-1.13376999518863,53.409886362309],[-1.13597651780103,53.4108759076329],[-1.14594565153652,53.4123246228947],[-1.14488944259365,53.4160105937596],[-1.14376398767261,53.4179584792557],[-1.13612808244103,53.4236671198104],[-1.13565370878331,53.4241275591114],[-1.13601973902786,53.424482555666],[-1.13675730116543,53.4251422612256],[-1.14081979108241,53.4252542058096],[-1.14524858139103,53.4260104292211],[-1.1458530652399,53.4263411306624],[-1.15253509857966,53.4249738115593],[-1.15816890347082,53.4242343396311],[-1.16049315962097,53.4243522315453],[-1.16285434710742,53.427956185557],[-1.16486958373934,53.4299505806737],[-1.16672433935045,53.4311553693556],[-1.1687031019512,53.4342685029714],[-1.17029071040231,53.4353016347138],[-1.17424916792653,53.4354000410186],[-1.18223329944302,53.4338980665647],[-1.18580593093348,53.4337749936288],[-1.18583615945195,53.4352682673837],[-1.19300001783364,53.4356503332293],[-1.19288613657017,53.4363434834587],[-1.19512907551435,53.4371352916969],[-1.19646236557994,53.4353195124415],[-1.19562828142058,53.4329318246292],[-1.19733998437934,53.4315554977149],[-1.19965406459052,53.4318397949378],[-1.20819697127223,53.4318535637415],[-1.21651321372403,53.4350355900466],[-1.22032423928939,53.4346406824023],[-1.2213627143655,53.4340722448092],[-1.22331970400884,53.4336444779844],[-1.22563013892396,53.4337277757195],[-1.22882764335069,53.4333736451994],[-1.23276556629457,53.4335195123553],[-1.23809855203463,53.4327545108364],[-1.24020283833381,53.43452348677],[-1.23752097572113,53.4411581448159],[-1.25075915244201,53.440771728359],[-1.25067934355324,53.4415416154624],[-1.25197972849697,53.4414759834363],[-1.25255368454536,53.4417950776448],[-1.25372955111641,53.4430006298698],[-1.25341113699565,53.4441573117104],[-1.25380564830151,53.4453624746653],[-1.25244476981487,53.4470662789343],[-1.25269680127384,53.4472916981794],[-1.25180941589433,53.4486928346509],[-1.25543237052533,53.4508349970096],[-1.2556633596376,53.4515780569451],[-1.25696389992733,53.4524750489925],[-1.25815500897971,53.4549830939799],[-1.25806272785143,53.4557834520279],[-1.25693876946201,53.4560749025102],[-1.25236771511903,53.4543772481712],[-1.25211079337642,53.4545203180575],[-1.25309207257794,53.4558378816069],[-1.25637706065362,53.4571976379322],[-1.25713772187794,53.4590010203372],[-1.25805214465256,53.4589878254952],[-1.25880963691962,53.4595156926616],[-1.25849286835583,53.4598004755925],[-1.25932096577661,53.4641480416533],[-1.25911008287321,53.4651911873411],[-1.25755949582237,53.4670377373641],[-1.25750862552961,53.4687452245343],[-1.25503343995491,53.4715091362503],[-1.25524693365126,53.4721360758788],[-1.25158016781626,53.4743585381423],[-1.24992621552798,53.4768236594104],[-1.25468739296929,53.4812129147156],[-1.25530812859567,53.4807925486849],[-1.25649395952669,53.4809661664974],[-1.26124710903025,53.4832840901552],[-1.26362957427248,53.4836286549557],[-1.26810499639281,53.4853945582577],[-1.26930526972503,53.4854468250548],[-1.26981681024038,53.4858463216577],[-1.27359117732491,53.4839475411388],[-1.27309298392865,53.4836460888276],[-1.27403103565075,53.4826351934841],[-1.27535049776004,53.4828418737253],[-1.27628054265049,53.4819396427391],[-1.28016742952671,53.4802120688759],[-1.27926726040434,53.4795325159768],[-1.28087744747471,53.4784105911436],[-1.28214380224973,53.4789098217659],[-1.28152165103107,53.4796152666918],[-1.29499775112326,53.4765817130672],[-1.29701155388408,53.4751671043485],[-1.29849026472853,53.4755874276282],[-1.29867184858704,53.4763588667463],[-1.29663962355754,53.4774372255325],[-1.29708979373741,53.4790955505369],[-1.29598891098993,53.480522809168],[-1.29852413486629,53.4816657962836],[-1.29864812149476,53.483106448311],[-1.29928892191528,53.4831793924669],[-1.3008753219455,53.4825612590406],[-1.3013305298866,53.4834717761039],[-1.29967693450873,53.4846001102253],[-1.29546782031605,53.4851471113424],[-1.29318955104481,53.4857548001425],[-1.2927889861986,53.4864625124022],[-1.29393477284307,53.4877142011224],[-1.29224484671632,53.4886444332951],[-1.29267561459417,53.4897471399789],[-1.29101420214914,53.490593054087],[-1.28922499900793,53.4904180025869],[-1.28906385046596,53.4910408562912],[-1.29162645396934,53.4912968698111],[-1.29154296490073,53.491691043211],[-1.29494998006557,53.4919304123417],[-1.29931121740928,53.4930760311855],[-1.3100581321947,53.4979329052962],[-1.3121332430479,53.5002144396857],[-1.31344681310405,53.5027037410026],[-1.31104826459569,53.5118178935742],[-1.31259645725728,53.5132488336568],[-1.31244277467456,53.5137944807151],[-1.31140619482573,53.5137381115775],[-1.31130092382027,53.5128836526688],[-1.31027356585099,53.5128121399998],[-1.30764681392164,53.5138198559545],[-1.30373010290537,53.513834879228],[-1.29939021029425,53.5151901666091],[-1.29659781937981,53.5149743033131],[-1.29507306294322,53.5153464312072],[-1.29369971932597,53.5152178343822],[-1.28861579728058,53.5157711038583],[-1.28769514413143,53.5150070321006],[-1.28631924236283,53.5145880884622],[-1.28316071299772,53.5156972247182],[-1.28278039818449,53.5165201288776],[-1.28128337823297,53.516492277089],[-1.27849182679417,53.519336529397],[-1.27650448582045,53.5206332517836],[-1.28617228194707,53.5267603450661],[-1.28539388890661,53.5278370777033],[-1.28325558245893,53.5272535025219],[-1.28139717263897,53.5289456584039],[-1.27582963154719,53.5281184619145],[-1.27572648676218,53.5298373120097],[-1.27603833106417,53.5303920178544],[-1.27992207186161,53.5308891850306],[-1.27974432776262,53.5311460142525],[-1.2802476168144,53.5314465678082],[-1.28132274858403,53.5314736946428],[-1.28322876434958,53.5303660955472],[-1.28399308884453,53.5305819299479],[-1.28504426144945,53.5315895228575],[-1.28454593033947,53.5323307664628],[-1.28534259271866,53.5328676761879],[-1.28665861486421,53.5328413777717],[-1.28781171743899,53.5320922506815],[-1.28964997661247,53.53403569855],[-1.29380884811291,53.5358104050817],[-1.28698197356202,53.5376701283126],[-1.28935389240689,53.5407493402038],[-1.28788058081594,53.5410515964587],[-1.28856734640527,53.5438349143589],[-1.29365229635005,53.5469722765679],[-1.29765726882895,53.5514962159239],[-1.30128013305692,53.5530381951724],[-1.30404273817122,53.5547700753664],[-1.31509037944982,53.5561865128463],[-1.31722619459727,53.5576080179406],[-1.32010003290985,53.558191526441],[-1.32075158832382,53.5582230734842],[-1.32275994636758,53.5574254464461],[-1.32680704640604,53.5581853261754],[-1.3267220358575,53.5586872396848],[-1.32773641948781,53.5599252329493],[-1.32895051174588,53.5608569352326],[-1.33088911874117,53.5617001176623],[-1.33260089053578,53.5637185132777],[-1.33564130166746,53.5657578170041],[-1.3392235066484,53.5700712208349],[-1.34179128796364,53.5723666115204],[-1.34487766583941,53.5764875323586],[-1.34572720601871,53.5769271609937],[-1.34487329981278,53.5777422734468],[-1.34495103978326,53.5781821887232],[-1.34679263801323,53.5797157486451],[-1.34751348947386,53.5796873189011],[-1.34717021486624,53.5823531345793],[-1.34766547010069,53.5832510743565],[-1.34873341137308,53.5833476291574],[-1.34776732930921,53.5841882082518],[-1.34640639344812,53.5839903081725],[-1.34115014525799,53.5824182789077],[-1.34030294698459,53.5818248835738],[-1.33874750409682,53.5817039152434],[-1.3379089732698,53.5811402948046],[-1.33634408619635,53.5810515916785],[-1.3349997159806,53.5799979530796],[-1.33320567855647,53.5794091259621],[-1.32828189386356,53.5791326262867],[-1.32641503921944,53.5793253104943],[-1.3248727435531,53.5799125574236],[-1.32423704001566,53.5796150517142],[-1.3221250518343,53.5796534392569],[-1.31843104230923,53.5774734950369],[-1.31417233063537,53.5767157784133],[-1.3117718202907,53.5766705604475],[-1.3099785403591,53.5757811747885],[-1.3078197080881,53.5753669698629],[-1.29864383186131,53.5774555136076],[-1.29681385586134,53.5779714379574],[-1.29585904654456,53.5784476410588],[-1.29604124995693,53.5787534156203],[-1.29538692462157,53.5786821772596],[-1.29525766069399,53.5790040918675],[-1.29455035695368,53.5790331758183],[-1.29459039486788,53.5793506952628],[-1.29402058146883,53.5792816538224],[-1.29260247442854,53.5798242899648],[-1.29104189373144,53.5798447174097],[-1.28959330369743,53.5803008743976],[-1.28957231037994,53.5805650180719],[-1.28824945731244,53.5807323862387],[-1.28603475037704,53.5823739145749],[-1.28377581415118,53.5829518699203],[-1.28228538741061,53.5830203214608],[-1.28146637590884,53.5837488232308],[-1.28010083169904,53.5842862389303],[-1.27921952539765,53.5854727100493],[-1.27832536020406,53.5854673293541],[-1.2777964520348,53.5860996991216],[-1.27940195956347,53.5876256026199],[-1.27669392278424,53.5899795221555],[-1.27537754784217,53.5897477371135],[-1.274376527544,53.589889133733],[-1.27388870647293,53.589441209268],[-1.27276910894304,53.5898002252503],[-1.27289476686291,53.5901353427686],[-1.27070005917375,53.5901175124678],[-1.27048081141268,53.5898654789813],[-1.27028786668071,53.5901042198021],[-1.26939991781908,53.5900799391237],[-1.26936778844432,53.5897543741384],[-1.26819988108971,53.5894965485573],[-1.2669698567691,53.5901218022222],[-1.26606300452462,53.5897998715969],[-1.26550651495489,53.590702393154],[-1.26422058979323,53.5913218848953],[-1.26283617548379,53.5908334592821],[-1.26275461361423,53.5912688502309],[-1.26203200643282,53.5912042011149],[-1.26220383059058,53.5915737575564],[-1.26103292810661,53.5914003130321],[-1.26048318245894,53.5919091926013],[-1.25802813621318,53.5919974489371],[-1.25672688730987,53.5930553543541],[-1.25805815777162,53.5948558735914],[-1.25291126681797,53.5971167686956],[-1.25360329511653,53.5975497829666],[-1.2548382229098,53.5969238006287],[-1.25734109490671,53.5980880547146],[-1.25542737986484,53.5989076216635],[-1.255724469199,53.5991161366519],[-1.25779004900261,53.5983398272456],[-1.25839318359546,53.5987587860756],[-1.25758568022495,53.5990530977439],[-1.25763806983067,53.5998525137555],[-1.25398956356772,53.6006657039058],[-1.25025829242958,53.6011134528342],[-1.24988877766798,53.6006473033024],[-1.25108107369593,53.6003905784408],[-1.25061106460388,53.5997944114506],[-1.24720997338638,53.600705188675],[-1.24895930114191,53.6019331700637],[-1.25069156715186,53.6040390950892],[-1.25219991808845,53.6071126104223],[-1.24486470960384,53.6081631549899],[-1.24824986714938,53.6163532838009],[-1.24413082035485,53.6170995138451],[-1.2365565932891,53.6170469338906],[-1.23333448398301,53.6166686165838],[-1.23074803912473,53.6169989913224],[-1.22917354750652,53.6168764601602],[-1.22791199943292,53.6173304085566],[-1.22848282290218,53.6175309726919],[-1.22863847901047,53.6182780114182],[-1.22950453738435,53.6189550359019],[-1.23123275598567,53.618860102859],[-1.23284427243353,53.6211122455192],[-1.22791313710352,53.6221618492199],[-1.22666629605145,53.6219650887107],[-1.22143299616713,53.6234817041136],[-1.21884448308553,53.6235654711601],[-1.21746850825603,53.6242243259895],[-1.21736469920201,53.6291037372339],[-1.21837019196901,53.6314006670576],[-1.21847058665622,53.6331748719555],[-1.21895485395145,53.6333182266728],[-1.21900424748215,53.6344116609095],[-1.21963650319328,53.6344894831303],[-1.21938721338277,53.6366874717442],[-1.2186005414762,53.6366167267983],[-1.21768126340222,53.6402035887003],[-1.21630072580909,53.6400147181923],[-1.21564716881912,53.6419826841633],[-1.21089244222326,53.6409562919706],[-1.20982718259376,53.6431641287685],[-1.20812765448795,53.6427231430726],[-1.20664696131722,53.6428030478595],[-1.20599421686443,53.6431918885184],[-1.20481887593891,53.6422724155077],[-1.19846789592228,53.6402533174377],[-1.19762740388902,53.6397505509121],[-1.19722920515214,53.6389685809736],[-1.19604821601717,53.6389561485079],[-1.19424063704775,53.6378535785711],[-1.1936952481083,53.6363909764622],[-1.19197553496928,53.6359982615539],[-1.18924649793491,53.6359169754149],[-1.17949816660654,53.637944689412],[-1.17419461674616,53.6382574788256],[-1.1723421128717,53.6394487072828],[-1.17052250994773,53.6393113658892],[-1.16772448644411,53.6407955448907],[-1.16537302091401,53.6408344010452],[-1.16307834073364,53.6418562108437],[-1.16135706242848,53.6417606003999],[-1.15868371541742,53.6434619356987],[-1.15509032420189,53.6431984757913],[-1.15343228572453,53.6427074267888],[-1.15206975522211,53.6426967238106],[-1.14957027132533,53.6386922967774],[-1.14746682209443,53.6388277589019],[-1.14584791061996,53.6386064718226],[-1.14479976314923,53.637213655366],[-1.14341819274454,53.6363367141952],[-1.14008985316999,53.6356570584469],[-1.13887999062032,53.6334618172635],[-1.13491215514482,53.632698060464],[-1.13358642655238,53.6334468403148],[-1.13037129395621,53.633908058502],[-1.12903265205062,53.6346685587376],[-1.12696507172,53.6384813814119],[-1.12818543654033,53.640106790514],[-1.12894048443944,53.6430168278049],[-1.12795081448022,53.643600713394],[-1.12586918078686,53.6436314208492],[-1.12486118716019,53.6439502639949],[-1.12303848942344,53.6460395022535],[-1.12161806948654,53.6467498911622],[-1.11914632858716,53.6467925499279],[-1.11696387486304,53.6458261000206],[-1.11587469546811,53.6457606479349],[-1.11365521612738,53.6468993655841],[-1.10162457477431,53.6485275216558],[-1.09521647773407,53.649946801446],[-1.09049720665502,53.6498450506956],[-1.08717899344514,53.6512517882033],[-1.0847972101813,53.6517244086967],[-1.08273092351862,53.6516077680651],[-1.07096842671774,53.6488709075195],[-1.06613883749557,53.6488548635137],[-1.05327754938186,53.6515369081499],[-1.0517164532506,53.6525339550989],[-1.05048205733458,53.654949296163],[-1.04866263627315,53.6560574790882],[-1.04634618481888,53.6567186761477],[-1.04449021308387,53.6567596103754],[-1.04128674884247,53.6560347505631],[-1.03878609578259,53.6548129513389],[-1.03722267720158,53.654495692823],[-1.03333900140687,53.6552095417878],[-1.02936207714353,53.654969722667],[-1.02345101736006,53.6569746985274],[-1.018998733234,53.6579773674352],[-1.00997491211416,53.6587777253983],[-0.998809440614091,53.6586894132309],[-0.990983991775185,53.6610641587091],[-0.990613579348504,53.6585739045183],[-0.992229956854607,53.6565956895269],[-0.99253775177535,53.6553659451419],[-0.992188096720929,53.6542924175591],[-0.990505162665549,53.6529201082522],[-0.991422738726634,53.6507966389858],[-0.990742515636837,53.6493815515592],[-0.989184109972999,53.6476785094731],[-0.989242933996756,53.645156824839],[-0.984565193200962,53.6376774964466],[-0.984488598150544,53.6334377978949],[-0.983787566456851,53.6318354892186],[-0.983670210405971,53.6296736312721],[-0.982522804187414,53.6277708969882],[-0.982829234715272,53.6258436666314],[-0.981968234595529,53.6243639930405],[-0.981947136459735,53.6234227098272],[-0.983263619046294,53.6207966834168],[-0.98684413259364,53.6170572237243],[-0.991555066512153,53.6139968215951],[-0.99562100064069,53.6121649638593],[-1.01056919236828,53.6087562535303],[-1.01057797991507,53.6087541814836],[-1.01581908670756,53.6075184587411],[-1.01600177825916,53.6074698537158],[-1.01869336515436,53.6067537118471],[-1.02110554173727,53.6055770640293],[-1.02917305685408,53.6041884658274],[-1.03315727828481,53.6017838885575],[-1.03513296039736,53.6015571174379],[-1.03891656324395,53.6019909881836],[-1.03983709085334,53.6020965269423],[-1.05157030055334,53.6017450472562],[-1.05396162017382,53.6010634886762],[-1.05400975315062,53.6010497693183],[-1.06470689437704,53.5962781878527],[-1.06474991567676,53.5962680996962],[-1.07159602070753,53.5946625396777],[-1.07276146458187,53.5947803851438],[-1.07564441654365,53.5958812482581],[-1.08054731364311,53.5955396786433],[-1.08062893279175,53.5955301803225],[-1.08717745618976,53.5947678943255],[-1.09113209351384,53.5922047954638],[-1.0911814602512,53.5908218734858],[-1.09114380059825,53.5907879015061],[-1.08833159453903,53.5882509951097],[-1.08634188743532,53.5871383811104],[-1.08536127272666,53.5851893911326],[-1.08297411203976,53.5834614714505],[-1.08135202529514,53.5718925313111],[-1.08154934461239,53.5709403619122],[-1.0832498208454,53.5689794366453],[-1.08167390533516,53.570627616223],[-1.08276755116465,53.5671942721707],[-1.08284330127708,53.5671485243016],[-1.08515878328193,53.5657500913689],[-1.0883312088731,53.5654596821426],[-1.09144983946124,53.5635939853892],[-1.09145172170897,53.5616767484969],[-1.09048064082844,53.5601404107051],[-1.09035108828449,53.5585089164341],[-1.09186078448677,53.5556312167018],[-1.09223901805876,53.5549113044228],[-1.09224042775869,53.5549074940388],[-1.09289302190282,53.5536633732732],[-1.09289475108388,53.5536600776529],[-1.09294600557969,53.5535623611686],[-1.09229298740887,53.5539591804574],[-1.09173414592578,53.5556906770567],[-1.09014090683464,53.5581054632835],[-1.09011779128056,53.5592653066428],[-1.09010137039422,53.5600881070894],[-1.09108665819755,53.561733286021],[-1.09119468929438,53.5634526773692],[-1.08806107386893,53.5653146579909],[-1.0848854297369,53.5656104267925],[-1.08440121506949,53.5658980382186],[-1.08291315084797,53.5667818745162],[-1.08243331638041,53.5670675475889],[-1.08088961086382,53.5724659738752],[-1.08265576421235,53.583513937807],[-1.08485286752755,53.5850164824522],[-1.08606342678728,53.5872288127986],[-1.09035674538249,53.5901828231482],[-1.09098268667679,53.5913810468973],[-1.09098551063496,53.5913864524489],[-1.09106480953496,53.591538246434],[-1.09100960491164,53.5916807396676],[-1.09100837969095,53.5916839042179],[-1.09085855656749,53.5920706264918],[-1.08729155527582,53.5943813791232],[-1.08641934259708,53.5946501564506],[-1.08622984019398,53.5947085513992],[-1.08045391990163,53.5952762866175],[-1.08044814446913,53.5952765937409],[-1.07574135141238,53.5955269608928],[-1.07264668826547,53.594361469703],[-1.07120980114239,53.5944313029026],[-1.06391027169052,53.5962242513173],[-1.05383805963217,53.6007544830537],[-1.05162960910839,53.6014614701243],[-1.04063117161491,53.6017990756715],[-1.03561360501103,53.6013570065187],[-1.03346551077361,53.6014520092551],[-1.03270266585052,53.6018617584727],[-1.03113976748195,53.6027012015283],[-1.02855568081496,53.6040890146962],[-1.02080712330576,53.6053445816879],[-1.01804971789461,53.6067439416819],[-1.01037152279083,53.6084963293611],[-1.01036758567903,53.6084972280309],[-0.998542848496319,53.6112501289932],[-0.998479480931626,53.6112648777248],[-0.995837525841624,53.6118270188242],[-0.995799992343375,53.6118413617023],[-0.99558518176563,53.6119234475479],[-0.995448648854608,53.6119756205415],[-0.992849180072641,53.6130801449162],[-0.992376254987623,53.613281080283],[-0.988509303614634,53.6153813941161],[-0.986421868629019,53.6169520186312],[-0.982211519916329,53.6217971423477],[-0.982178803054747,53.6218829972865],[-0.98164506527821,53.6232835542713],[-0.981628690055124,53.6234790540549],[-0.981556482288605,53.6243411498803],[-0.981553734434204,53.6243739473897],[-0.982326917415622,53.6256685750438],[-0.982024999107918,53.6277855365192],[-0.983040897893919,53.6293698633004],[-0.983319949472859,53.6322260944831],[-0.983952547467804,53.6334638028596],[-0.984158391175604,53.6379895436955],[-0.988500830636214,53.6447496959204],[-0.988674356302411,53.647864798332],[-0.990743814864684,53.6504655389579],[-0.989898698779509,53.6529069084857],[-0.991600315066494,53.6545149055063],[-0.99192275640329,53.65571400916],[-0.99027877942319,53.6578924639445],[-0.989984320408114,53.6589797586554]]]}},{"type":"Feature","properties":{"name":"Rotherham","code":"E08000018"},"geometry":{"type":"Polygon","coordinates":[[[-1.31244277467456,53.5137944807151],[-1.31259645725728,53.5132488336568],[-1.31104826459569,53.5118178935742],[-1.31344681310405,53.5027037410026],[-1.3121332430479,53.5002144396857],[-1.3100581321947,53.4979329052962],[-1.29931121740928,53.4930760311855],[-1.29494998006557,53.4919304123417],[-1.29154296490073,53.491691043211],[-1.29162645396934,53.4912968698111],[-1.28906385046596,53.4910408562912],[-1.28922499900793,53.4904180025869],[-1.29101420214914,53.490593054087],[-1.29267561459417,53.4897471399789],[-1.29224484671632,53.4886444332951],[-1.29393477284307,53.4877142011224],[-1.2927889861986,53.4864625124022],[-1.29318955104481,53.4857548001425],[-1.29546782031605,53.4851471113424],[-1.29967693450873,53.4846001102253],[-1.3013305298866,53.4834717761039],[-1.3008753219455,53.4825612590406],[-1.29928892191528,53.4831793924669],[-1.29864812149476,53.483106448311],[-1.29852413486629,53.4816657962836],[-1.29598891098993,53.480522809168],[-1.29708979373741,53.4790955505369],[-1.29663962355754,53.4774372255325],[-1.29867184858704,53.4763588667463],[-1.29849026472853,53.4755874276282],[-1.29701155388408,53.4751671043485],[-1.29499775112326,53.4765817130672],[-1.28152165103107,53.4796152666918],[-1.28214380224973,53.4789098217659],[-1.28087744747471,53.4784105911436],[-1.27926726040434,53.4795325159768],[-1.28016742952671,53.4802120688759],[-1.27628054265049,53.4819396427391],[-1.27535049776004,53.4828418737253],[-1.27403103565075,53.4826351934841],[-1.27309298392865,53.4836460888276],[-1.27359117732491,53.4839475411388],[-1.26981681024038,53.4858463216577],[-1.26930526972503,53.4854468250548],[-1.26810499639281,53.4853945582577],[-1.26362957427248,53.4836286549557],[-1.26124710903025,53.4832840901552],[-1.25649395952669,53.4809661664974],[-1.25530812859567,53.4807925486849],[-1.25468739296929,53.4812129147156],[-1.24992621552798,53.4768236594104],[-1.25158016781626,53.4743585381423],[-1.25524693365126,53.4721360758788],[-1.25503343995491,53.4715091362503],[-1.25750862552961,53.4687452245343],[-1.25755949582237,53.4670377373641],[-1.25911008287321,53.4651911873411],[-1.25932096577661,53.4641480416533],[-1.25849286835583,53.4598004755925],[-1.25880963691962,53.4595156926616],[-1.25805214465256,53.4589878254952],[-1.25713772187794,53.4590010203372],[-1.25637706065362,53.4571976379322],[-1.25309207257794,53.4558378816069],[-1.25211079337642,53.4545203180575],[-1.25236771511903,53.4543772481712],[-1.25693876946201,53.4560749025102],[-1.25806272785143,53.4557834520279],[-1.25815500897971,53.4549830939799],[-1.25696389992733,53.4524750489925],[-1.2556633596376,53.4515780569451],[-1.25543237052533,53.4508349970096],[-1.25180941589433,53.4486928346509],[-1.25269680127384,53.4472916981794],[-1.25244476981487,53.4470662789343],[-1.25380564830151,53.4453624746653],[-1.25341113699565,53.4441573117104],[-1.25372955111641,53.4430006298698],[-1.25255368454536,53.4417950776448],[-1.25197972849697,53.4414759834363],[-1.25067934355324,53.4415416154624],[-1.25075915244201,53.440771728359],[-1.23752097572113,53.4411581448159],[-1.24020283833381,53.43452348677],[-1.23809855203463,53.4327545108364],[-1.23276556629457,53.4335195123553],[-1.22882764335069,53.4333736451994],[-1.22563013892396,53.4337277757195],[-1.22331970400884,53.4336444779844],[-1.2213627143655,53.4340722448092],[-1.22032423928939,53.4346406824023],[-1.21651321372403,53.4350355900466],[-1.20819697127223,53.4318535637415],[-1.19965406459052,53.4318397949378],[-1.19733998437934,53.4315554977149],[-1.19562828142058,53.4329318246292],[-1.19646236557994,53.4353195124415],[-1.19512907551435,53.4371352916969],[-1.19288613657017,53.4363434834587],[-1.19300001783364,53.4356503332293],[-1.18583615945195,53.4352682673837],[-1.18580593093348,53.4337749936288],[-1.18223329944302,53.4338980665647],[-1.17424916792653,53.4354000410186],[-1.17029071040231,53.4353016347138],[-1.1687031019512,53.4342685029714],[-1.16672433935045,53.4311553693556],[-1.16486958373934,53.4299505806737],[-1.16285434710742,53.427956185557],[-1.16049315962097,53.4243522315453],[-1.15816890347082,53.4242343396311],[-1.15253509857966,53.4249738115593],[-1.1458530652399,53.4263411306624],[-1.14524858139103,53.4260104292211],[-1.14081979108241,53.4252542058096],[-1.13675730116543,53.4251422612256],[-1.13601973902786,53.424482555666],[-1.13565370878331,53.4241275591114],[-1.13612808244103,53.4236671198104],[-1.14376398767261,53.4179584792557],[-1.14488944259365,53.4160105937596],[-1.14594565153652,53.4123246228947],[-1.13597651780103,53.4108759076329],[-1.13376999518863,53.409886362309],[-1.13339767628057,53.4087430364382],[-1.12380241214943,53.4098703852796],[-1.12209553792303,53.4103530903844],[-1.12104175917938,53.4100981298486],[-1.11892221860135,53.4102362749661],[-1.11804557196485,53.410941700242],[-1.11614035380603,53.4101743900356],[-1.11569218028795,53.4095894807551],[-1.11627077778226,53.408531222992],[-1.11604100602787,53.4073493528943],[-1.11514092291067,53.401861224988],[-1.11591849216848,53.3980188640978],[-1.11557938044441,53.3971857489981],[-1.11947020753265,53.3980459975142],[-1.12281104249626,53.3983123988667],[-1.12920736470212,53.3935960060095],[-1.13151183604944,53.3939363809343],[-1.13320756443009,53.3924079953854],[-1.13290021623955,53.3922915491846],[-1.13327807155101,53.3913783164297],[-1.13460768887929,53.3900315635219],[-1.13469257364267,53.3897705866995],[-1.13124445582925,53.389413871972],[-1.13094708372148,53.385557296704],[-1.13244501395975,53.3839807536173],[-1.13304682678593,53.3815949403675],[-1.13049956559973,53.3788869934777],[-1.13099452476517,53.3779836045372],[-1.12999587827008,53.3775655684886],[-1.13053708984926,53.3755712186089],[-1.13190096242853,53.3756161863844],[-1.13195767441212,53.3748993097073],[-1.1336598295045,53.3748667379208],[-1.13419419043825,53.3741659053614],[-1.13413653034978,53.3732261455418],[-1.13797801200155,53.3722786497727],[-1.14073976937996,53.3720234825216],[-1.14045590480801,53.3712636216829],[-1.14132792673313,53.3707288276523],[-1.14280355282909,53.3712679158316],[-1.144915555971,53.3712507064893],[-1.14603291441165,53.3690411448824],[-1.14421475365214,53.3682704005747],[-1.14421517764329,53.3675009033237],[-1.14566222957752,53.3666087663687],[-1.14587578290391,53.3658498695512],[-1.14644015470332,53.3657334886175],[-1.14641713111861,53.3639525898987],[-1.14517823272168,53.3633827999065],[-1.14055426651146,53.3640597089372],[-1.14011582429192,53.3626228703817],[-1.13897603338044,53.3613894573541],[-1.13923680355512,53.3598596133206],[-1.13853968203233,53.3559075133134],[-1.14495166419725,53.3553315803347],[-1.14527957850356,53.3548602607077],[-1.14910136232463,53.3543518027261],[-1.15061159432921,53.3544101867885],[-1.15169338424547,53.354485368199],[-1.16194934785768,53.3579088230968],[-1.16261328765896,53.3568438611201],[-1.16238962447019,53.3561384944206],[-1.1616170814152,53.3556979571523],[-1.16241972726773,53.3516101259956],[-1.16182098132306,53.3508886412387],[-1.15986811483155,53.3499697153856],[-1.16010306338313,53.3489421918509],[-1.1581490629813,53.3477032360675],[-1.15687692922685,53.3458632276062],[-1.15684339220656,53.3449694993649],[-1.15267034033808,53.344684597037],[-1.14956513524225,53.3453087675852],[-1.14817924798771,53.3452108099685],[-1.14490705105285,53.3456952884245],[-1.14180500695424,53.3467507232693],[-1.14100746087464,53.3467476771044],[-1.14028636046273,53.3465276200277],[-1.13935974458255,53.3447286251728],[-1.13871810210376,53.3413828108768],[-1.14571005148364,53.3406116250876],[-1.14863732631531,53.3384968428861],[-1.15932546369131,53.333548982105],[-1.16051159129964,53.3323303872193],[-1.16086720623404,53.3311158154883],[-1.16388225082516,53.3292772591056],[-1.16587196856564,53.3291122990607],[-1.168903905706,53.3282409976464],[-1.16977741713528,53.3274111135678],[-1.17107506669083,53.3272304563355],[-1.17147769638157,53.3265240753553],[-1.17218910160549,53.3269227041929],[-1.17248004079603,53.3265499157164],[-1.17345766506299,53.3263877667488],[-1.17388000366372,53.3257417214769],[-1.17511085119313,53.3256773764623],[-1.17530896676882,53.3245111841602],[-1.17405208258453,53.3235910118081],[-1.17198328511336,53.322816149885],[-1.17470377861347,53.3226481248809],[-1.17423811377753,53.3218071216294],[-1.17448181183083,53.3213908671433],[-1.1804152506841,53.3210461687937],[-1.18660987815986,53.3195938913969],[-1.19032335351259,53.3199319986666],[-1.19011250986436,53.3194963566724],[-1.1915347416521,53.3192228664418],[-1.19152321646541,53.3189612934156],[-1.1924158097994,53.3189898132092],[-1.19436816329102,53.3148699715139],[-1.19720431317386,53.3146734568258],[-1.19974282859,53.3114401844765],[-1.20302705199488,53.3072267753649],[-1.20210792170164,53.3060565743682],[-1.2032390468772,53.3042232396806],[-1.20570784753601,53.3042901111599],[-1.20980824813288,53.3053195540469],[-1.21250112129382,53.3054514794932],[-1.21873647376402,53.3040525352462],[-1.21987804757969,53.3040779715716],[-1.22181913500714,53.3051961954779],[-1.23068793446757,53.3085597341743],[-1.23230488461396,53.3082771065545],[-1.23682082664149,53.3063410707283],[-1.23873479700562,53.3044521890716],[-1.24154915744756,53.3024674501734],[-1.2438683827737,53.3015697912915],[-1.24494358700666,53.3016934111337],[-1.24682569586746,53.3026149566568],[-1.24788225310256,53.3026890995275],[-1.25103252561074,53.3018908824068],[-1.25429413883004,53.3017548273463],[-1.25501542406533,53.3023903340993],[-1.25817599533321,53.3034132110259],[-1.26131366756037,53.3039422557822],[-1.26414747939824,53.3053988875057],[-1.26781251517115,53.3058177898422],[-1.26944810395843,53.307858429381],[-1.26964024283045,53.3090964641734],[-1.27154857158386,53.3093111986856],[-1.27387551742762,53.3105145780933],[-1.27642949735277,53.3092132518781],[-1.28201141324174,53.3094625893165],[-1.28530746984825,53.3116108892025],[-1.29366460979576,53.3139815173992],[-1.29567816421914,53.3150369715531],[-1.29473459027827,53.3152714268391],[-1.29568689993527,53.3197093435836],[-1.29515875672233,53.3217915202234],[-1.29394740865261,53.3227839694873],[-1.29010866650042,53.3231405155353],[-1.29034395021904,53.3237100091687],[-1.289311279044,53.3244139440017],[-1.28858902654107,53.3262280540006],[-1.29123102148226,53.3279758125873],[-1.29176686797676,53.3278981158679],[-1.29182191726344,53.3281995640148],[-1.29323142998365,53.3286824612453],[-1.29282872589037,53.3287862035061],[-1.29317992296594,53.3289823793253],[-1.29466723940393,53.3294792885906],[-1.29537639953205,53.3303643708081],[-1.29573455874794,53.3301318585863],[-1.29709688184691,53.3306522618959],[-1.29739192874292,53.3314269722864],[-1.29902301015448,53.3325116364699],[-1.30268544125046,53.3326030961219],[-1.30597310643514,53.3337698474376],[-1.31229934658408,53.3341648261918],[-1.31150194522756,53.3321143996209],[-1.30878911719545,53.3321707744687],[-1.30924950863947,53.3317374963233],[-1.31050814060803,53.331906446596],[-1.31132222707255,53.3308738274803],[-1.31143883191568,53.3302524727658],[-1.31053730161266,53.3293538370057],[-1.31300576968695,53.3293616180316],[-1.31367809138619,53.3273205490113],[-1.31495818392184,53.3265214837728],[-1.31551169940781,53.3264572234464],[-1.31561152379254,53.3267867734206],[-1.31786691383633,53.3261118998956],[-1.32169342025816,53.325487233086],[-1.3222976164303,53.3275265623092],[-1.32371899636209,53.3270824617182],[-1.32402739064948,53.3273314062033],[-1.32475637522064,53.3270909836587],[-1.32466917492843,53.3288100130807],[-1.3248226732633,53.3335362923093],[-1.32553524471398,53.3356760717976],[-1.32620522174659,53.3420457459271],[-1.3286358564753,53.3488972225293],[-1.3304347238018,53.3488506519079],[-1.33116563571156,53.3492753756907],[-1.3305886482039,53.3510106409439],[-1.3319766635888,53.3523558722277],[-1.335173429146,53.3518837930031],[-1.33573117887775,53.3520513362101],[-1.33779729644106,53.3535729125518],[-1.34034581177199,53.3584957918468],[-1.34516052047322,53.3612044524459],[-1.34630902883623,53.3624413095646],[-1.35196197316807,53.3665125480061],[-1.3610813624873,53.36659214721],[-1.36374234258423,53.3701613332609],[-1.36610901376015,53.3723213065697],[-1.37986526553007,53.3810772735743],[-1.38564772068614,53.3829146695314],[-1.39139831426442,53.3833206438841],[-1.3899488652129,53.3860682432156],[-1.38834854717578,53.3873732660936],[-1.38627233333423,53.3885139879161],[-1.38182606634484,53.390190009598],[-1.38056579619956,53.3910410347914],[-1.37983467911108,53.3909571964448],[-1.37908189976465,53.3918521636389],[-1.37688930878905,53.3923801513084],[-1.37579834104707,53.3936742385421],[-1.37628185657394,53.3947463676734],[-1.37918727562663,53.3968108848252],[-1.37699075125439,53.3983141190192],[-1.3774406549584,53.399230609157],[-1.38176377061832,53.4010425489066],[-1.38303728350017,53.4034671547805],[-1.38177027630774,53.403919122231],[-1.38206909224113,53.4050981455136],[-1.38294948085344,53.4054855835593],[-1.38462934020247,53.4072839345517],[-1.38689182725554,53.4108353988398],[-1.38995688925245,53.4122668836266],[-1.39055820416675,53.4129297318868],[-1.39167249221132,53.4152887654297],[-1.38918732003668,53.417796622385],[-1.38938329792753,53.4186146658439],[-1.39265916553231,53.418377816643],[-1.39352979520877,53.4200030127533],[-1.3844173221507,53.4205416331328],[-1.38233059553607,53.4210388001611],[-1.38233253048967,53.4215314440589],[-1.37966403012685,53.4224011881292],[-1.3804390068682,53.4241688657899],[-1.38163504484486,53.4249166086648],[-1.38166051794035,53.4254453148319],[-1.38172263828105,53.4252083097106],[-1.38236409732663,53.4253896410286],[-1.38730231562177,53.4251237667765],[-1.39621678228797,53.423859337363],[-1.39634365704284,53.4243633020356],[-1.39686588537897,53.424354249472],[-1.39729123212715,53.4248184680119],[-1.40389754670584,53.4227705809503],[-1.40850407737209,53.4203493942826],[-1.409720703812,53.4214934334679],[-1.40994542267422,53.4227565727527],[-1.41143616849122,53.423338325856],[-1.41227114677395,53.424664667494],[-1.4157664187181,53.4272255907312],[-1.41580804033672,53.4277112220008],[-1.41639210709348,53.4279198537949],[-1.4182496552874,53.4299864387674],[-1.43240172526738,53.4375427184966],[-1.43634609091451,53.4403567974245],[-1.44153520395415,53.4454336435485],[-1.44292944404854,53.4472783562956],[-1.44411250061161,53.4499750519352],[-1.44426115910657,53.4545232383406],[-1.44383568297953,53.4559836868536],[-1.44469560049365,53.4566762936008],[-1.4452528514104,53.4586411166822],[-1.44695105473029,53.4611262595215],[-1.44938938599429,53.4638124793459],[-1.4552192140429,53.4717509446572],[-1.45678991086165,53.4735648211677],[-1.45175820638653,53.4762429845554],[-1.45044456092228,53.477393730849],[-1.45077679441129,53.4822365667463],[-1.4522066569649,53.4849288635854],[-1.44347354201303,53.4885235952061],[-1.44263494014941,53.4899525133387],[-1.44105081986194,53.4911054889725],[-1.43560903709316,53.4884445295608],[-1.43300969037767,53.4879611992661],[-1.42796513905113,53.4858537045105],[-1.42606798819184,53.487401453139],[-1.42553681981335,53.4886770771873],[-1.42434311627858,53.4895693163222],[-1.42277678899155,53.4902700531419],[-1.42211093636482,53.489795793937],[-1.41991740315548,53.489838293043],[-1.41981666149844,53.4912660421802],[-1.41917849929105,53.4910858331278],[-1.41707103888713,53.4922144795881],[-1.41517833108485,53.4925117635156],[-1.41555438430042,53.4932272690142],[-1.41685300764448,53.4936058001987],[-1.4164873325318,53.4944336076971],[-1.41173722824739,53.4962144006388],[-1.41081111557914,53.4969082403327],[-1.40970089786568,53.4984793692845],[-1.41215372297225,53.4992357450531],[-1.40862948304239,53.5033234743195],[-1.40806656887118,53.5032550059346],[-1.40720134123079,53.503997733298],[-1.40554344434229,53.5043948749262],[-1.40558225965699,53.5048463445461],[-1.39631085200222,53.5053014757736],[-1.39699430525246,53.5056976980572],[-1.39560315685931,53.5065059864584],[-1.38009949340725,53.5142280824856],[-1.37905012207418,53.5145264848356],[-1.37813194513942,53.5142008417802],[-1.37057518921436,53.5147331916496],[-1.36930590549617,53.5143939552781],[-1.36886685466225,53.5153272942522],[-1.36014808705646,53.5129682175335],[-1.35028412113142,53.5139784521459],[-1.34504942972553,53.513997469629],[-1.34138768420085,53.5147898401584],[-1.33458515368499,53.514382696502],[-1.33055539336318,53.5146837643161],[-1.32945892785236,53.5144097385889],[-1.3282970461603,53.513398298746],[-1.3260112770791,53.5123292906276],[-1.32465096992668,53.5130936883101],[-1.32241828630145,53.5131466405597],[-1.32063800361693,53.5139572237971],[-1.31977559462226,53.5138480766973],[-1.31846812825143,53.5130990038519],[-1.31527919443433,53.5128777188104],[-1.31244277467456,53.5137944807151]]]}},{"type":"Feature","properties":{"name":"Sheffield","code":"E08000019"},"geometry":{"type":"Polygon","coordinates":[[[-1.4552192140429,53.4717509446572],[-1.44938938599429,53.4638124793459],[-1.44695105473029,53.4611262595215],[-1.4452528514104,53.4586411166822],[-1.44469560049365,53.4566762936008],[-1.44383568297953,53.4559836868536],[-1.44426115910657,53.4545232383406],[-1.44411250061161,53.4499750519352],[-1.44292944404854,53.4472783562956],[-1.44153520395415,53.4454336435485],[-1.43634609091451,53.4403567974245],[-1.43240172526738,53.4375427184966],[-1.4182496552874,53.4299864387674],[-1.41639210709348,53.4279198537949],[-1.41580804033672,53.4277112220008],[-1.4157664187181,53.4272255907312],[-1.41227114677395,53.424664667494],[-1.41143616849122,53.423338325856],[-1.40994542267422,53.4227565727527],[-1.409720703812,53.4214934334679],[-1.40850407737209,53.4203493942826],[-1.40389754670584,53.4227705809503],[-1.39729123212715,53.4248184680119],[-1.39686588537897,53.424354249472],[-1.39634365704284,53.4243633020356],[-1.39621678228797,53.423859337363],[-1.38730231562177,53.4251237667765],[-1.38236409732663,53.4253896410286],[-1.38172263828105,53.4252083097106],[-1.38166051794035,53.4254453148319],[-1.38163504484486,53.4249166086648],[-1.3804390068682,53.4241688657899],[-1.37966403012685,53.4224011881292],[-1.38233253048967,53.4215314440589],[-1.38233059553607,53.4210388001611],[-1.3844173221507,53.4205416331328],[-1.39352979520877,53.4200030127533],[-1.39265916553231,53.418377816643],[-1.38938329792753,53.4186146658439],[-1.38918732003668,53.417796622385],[-1.39167249221132,53.4152887654297],[-1.39055820416675,53.4129297318868],[-1.38995688925245,53.4122668836266],[-1.38689182725554,53.4108353988398],[-1.38462934020247,53.4072839345517],[-1.38294948085344,53.4054855835593],[-1.38206909224113,53.4050981455136],[-1.38177027630774,53.403919122231],[-1.38303728350017,53.4034671547805],[-1.38176377061832,53.4010425489066],[-1.3774406549584,53.399230609157],[-1.37699075125439,53.3983141190192],[-1.37918727562663,53.3968108848252],[-1.37628185657394,53.3947463676734],[-1.37579834104707,53.3936742385421],[-1.37688930878905,53.3923801513084],[-1.37908189976465,53.3918521636389],[-1.37983467911108,53.3909571964448],[-1.38056579619956,53.3910410347914],[-1.38182606634484,53.390190009598],[-1.38627233333423,53.3885139879161],[-1.38834854717578,53.3873732660936],[-1.3899488652129,53.3860682432156],[-1.39139831426442,53.3833206438841],[-1.38564772068614,53.3829146695314],[-1.37986526553007,53.3810772735743],[-1.36610901376015,53.3723213065697],[-1.36374234258423,53.3701613332609],[-1.3610813624873,53.36659214721],[-1.35196197316807,53.3665125480061],[-1.34630902883623,53.3624413095646],[-1.34516052047322,53.3612044524459],[-1.34034581177199,53.3584957918468],[-1.33779729644106,53.3535729125518],[-1.33573117887775,53.3520513362101],[-1.335173429146,53.3518837930031],[-1.3319766635888,53.3523558722277],[-1.3305886482039,53.3510106409439],[-1.33116563571156,53.3492753756907],[-1.3304347238018,53.3488506519079],[-1.3286358564753,53.3488972225293],[-1.32620522174659,53.3420457459271],[-1.32553524471398,53.3356760717976],[-1.3248226732633,53.3335362923093],[-1.32466917492843,53.3288100130807],[-1.32766403737565,53.3291288140305],[-1.32830019566931,53.3289742087432],[-1.32876916946095,53.3276959246205],[-1.32812628737062,53.327334593709],[-1.3281645518094,53.3268062361585],[-1.33241721063758,53.3234996796437],[-1.33280584580825,53.3229310832587],[-1.33222794712927,53.3221594482727],[-1.33456210050659,53.3210182928085],[-1.33452471653809,53.3203341185306],[-1.33658057526203,53.3179646444379],[-1.33654905337946,53.3166036026705],[-1.3377510519613,53.3158480511117],[-1.3402595397932,53.3155346839535],[-1.34162911383633,53.3160805544673],[-1.34089465408394,53.3169879744353],[-1.34305265126168,53.3179040415426],[-1.347307412577,53.3185510770256],[-1.34723808333142,53.3188688907224],[-1.35305280236596,53.3191090430853],[-1.36190115849585,53.3184376872674],[-1.36294693380496,53.3175650490342],[-1.36192286751678,53.3157716502775],[-1.36262274042287,53.3150356338322],[-1.36416766942075,53.3152038348082],[-1.3654500896029,53.3158767360018],[-1.37164602141964,53.3160812577409],[-1.37412959043144,53.3172503196657],[-1.37703913214274,53.3174236993755],[-1.37814566898567,53.3170905925563],[-1.37961166512999,53.3172312180885],[-1.38061617871072,53.3169938032849],[-1.3837757147168,53.3178406722801],[-1.3843498611973,53.3175803349788],[-1.38524116447472,53.3178068831383],[-1.38673871273592,53.3176321345653],[-1.38685896911262,53.3180426169622],[-1.38730405725389,53.317883948298],[-1.38786252094427,53.3184018990159],[-1.38925983651729,53.3187317280357],[-1.38993241340112,53.3185113054414],[-1.39200397141391,53.3226487135994],[-1.39042852660097,53.3260770770464],[-1.39120485932102,53.3282896793219],[-1.39034036319761,53.3310214350939],[-1.39072488569658,53.3316409293769],[-1.38872991111617,53.3331804562179],[-1.38791949306757,53.3345219166371],[-1.38722578117671,53.3340977274754],[-1.3865715460456,53.3349025063664],[-1.38891614667387,53.3362331228413],[-1.38882443388516,53.3364475140994],[-1.38945841281904,53.3360111432052],[-1.39069775712585,53.3359806112245],[-1.40639582863445,53.3393988177359],[-1.40756514992713,53.3400958269917],[-1.40678574021902,53.340851494229],[-1.40829069035149,53.3418270240692],[-1.41103390674883,53.3419924911679],[-1.41238430722479,53.3410966255687],[-1.41211280505505,53.3409658917689],[-1.41302640652019,53.339617483748],[-1.41258981193377,53.338810892757],[-1.41385128211452,53.3379343454352],[-1.41450962541804,53.3383348459462],[-1.41611499807402,53.3370132445417],[-1.42086649613,53.3345679515529],[-1.42118283391083,53.3350459339483],[-1.4222688350732,53.3350259256219],[-1.42240174335385,53.3353070276812],[-1.42309611353545,53.3353706721273],[-1.42348949660629,53.3359405883313],[-1.42779207815845,53.336150019945],[-1.43361184412674,53.3376905111459],[-1.43390975106137,53.3374285325224],[-1.43673578784668,53.337449060652],[-1.44114135871167,53.3363631741743],[-1.44197211462372,53.3374924881712],[-1.44303098730568,53.3372618975898],[-1.44967416419221,53.3321888734135],[-1.45129614058844,53.3313567544748],[-1.45393672289027,53.3307171720432],[-1.45988027916359,53.3306893682185],[-1.45663683601575,53.3293901802972],[-1.4575200428043,53.3286580447339],[-1.45827593729984,53.3287288705333],[-1.45993629200958,53.3297044661204],[-1.46165782232759,53.3282057011573],[-1.45871342513123,53.326666097666],[-1.45659348200016,53.3263023310508],[-1.45636993137518,53.3251120829681],[-1.45513004975492,53.324966250948],[-1.45430705721385,53.3242802652158],[-1.4558246792315,53.3234736667399],[-1.45522358182387,53.3218691402976],[-1.45728009693386,53.3217697648976],[-1.45726191949229,53.3207143445423],[-1.45973486467779,53.3197341052904],[-1.45997367756276,53.3200830399083],[-1.46166691279853,53.320212084107],[-1.46322290053778,53.31978756683],[-1.46720816130289,53.3180104121007],[-1.4679128327397,53.3171200548681],[-1.46962316629763,53.3171878638971],[-1.47691687648276,53.3192838603203],[-1.47842147197745,53.3193722089495],[-1.47959880304774,53.3193297131357],[-1.47969024721457,53.3187206681412],[-1.48249993874053,53.3188838323616],[-1.48463145562636,53.318517328655],[-1.48471580266206,53.3187487266534],[-1.49106536002019,53.3173790255856],[-1.49233046951016,53.317401479005],[-1.49309500135762,53.3167296805599],[-1.50071498252361,53.3159024004099],[-1.50213193956548,53.3175820754971],[-1.51128788780696,53.3158032106802],[-1.51526138994148,53.3137879736875],[-1.51589611786677,53.313405757199],[-1.51613031806187,53.3126013647799],[-1.51733850159112,53.3122061840056],[-1.51911455319375,53.3122952051744],[-1.52119607943859,53.312855399668],[-1.52154675175378,53.3127705366472],[-1.52163034153601,53.3117353935681],[-1.52418440885294,53.3124574702432],[-1.52578981026907,53.312101615208],[-1.52631609097859,53.3114664019295],[-1.52618529691351,53.3104034479373],[-1.52657258399652,53.3102611135493],[-1.52767288670192,53.3105108777849],[-1.52819725260388,53.3103259461568],[-1.52874331730463,53.3108899152041],[-1.52889845051059,53.3107027147694],[-1.52947090960894,53.3109269280297],[-1.53003003600514,53.3104383918096],[-1.5301190697993,53.3106696859987],[-1.53102823161793,53.3104207444215],[-1.53121491084347,53.310651522755],[-1.53145778076347,53.3099882162406],[-1.53201402583485,53.309896039785],[-1.5318420428105,53.3087510674709],[-1.53285374684044,53.3084556946536],[-1.53340719718739,53.3076525142097],[-1.53308624170502,53.3076395795001],[-1.53340946884259,53.307171583658],[-1.53297309055573,53.306873245786],[-1.53337345228398,53.3064910091196],[-1.53311515340006,53.3062248191246],[-1.53458005719007,53.305515949152],[-1.53498606099908,53.3057171125125],[-1.53504197351283,53.3052624497605],[-1.53679076130701,53.305080528693],[-1.5367688622067,53.3047486735244],[-1.53900689043359,53.3048266080448],[-1.53923523902712,53.3045326519269],[-1.54093523717952,53.3046847683204],[-1.54092801817405,53.3049427339221],[-1.54165573716274,53.3046704586743],[-1.54260357163269,53.3052889228891],[-1.54844596066313,53.3069569503449],[-1.54917077086522,53.3069596856785],[-1.5503956402195,53.3062272524325],[-1.55353844083559,53.3058956673235],[-1.55479105145755,53.3060909354043],[-1.55685196111091,53.3054666834848],[-1.55845761275355,53.3053224648267],[-1.55793384796323,53.3057555497864],[-1.56172989361096,53.3064113168299],[-1.56177635865168,53.3067072222061],[-1.55968813969014,53.3082438239788],[-1.5591234489355,53.3097410849514],[-1.55655287725181,53.3114439838483],[-1.55575188364951,53.3115488450082],[-1.55848960957804,53.3137162929835],[-1.56017534777689,53.3136964447679],[-1.5609118988728,53.3154977309298],[-1.56173104513262,53.3159708920495],[-1.56250225581862,53.3155656536186],[-1.56409046767389,53.3136325106438],[-1.56608887413744,53.3135687880164],[-1.56749973989224,53.3147622273728],[-1.57049369081374,53.3143658557602],[-1.57390617153387,53.3133803302586],[-1.57315734304506,53.3127718132321],[-1.58053389587991,53.3117380883258],[-1.58123975639896,53.314306828156],[-1.58300458734422,53.3157224724702],[-1.58128808153317,53.3164265606471],[-1.57892430901633,53.3166951246412],[-1.58490201019108,53.3215879514643],[-1.58690191291269,53.321404280249],[-1.58729424899001,53.3208815629269],[-1.58677358413924,53.3199269636823],[-1.59037843723814,53.3182980451289],[-1.59909327897252,53.3113181987842],[-1.59919743278061,53.3146146676721],[-1.60067350655687,53.3156731413679],[-1.60060598133583,53.3169681784512],[-1.60152504315608,53.318205401625],[-1.60388817604877,53.3191363986519],[-1.6092015844932,53.3226639601595],[-1.61943428235884,53.3182574359541],[-1.62505758895613,53.3165250538887],[-1.62759442860749,53.3162405746947],[-1.62827741422933,53.3163771707698],[-1.63272698677736,53.320839212062],[-1.62683877384067,53.3253692429058],[-1.6279186167653,53.3258481568991],[-1.627264524537,53.328547182888],[-1.62642981782579,53.3292214167602],[-1.62357509878537,53.3304645960289],[-1.62370398693428,53.3311670906302],[-1.62208532094098,53.3316769825672],[-1.62211274095133,53.3336744240882],[-1.61951175423287,53.3353811841176],[-1.61679811564617,53.3363846293347],[-1.61573559983646,53.3378203530534],[-1.61437181966503,53.3388352620947],[-1.61214035494544,53.3416190548943],[-1.61230306160512,53.3432186688852],[-1.60881162667894,53.343303449596],[-1.60764407748973,53.3427082461882],[-1.60424781418018,53.3424147990753],[-1.60157558241263,53.3426090118115],[-1.59146455730225,53.3449479540956],[-1.59054795436381,53.3459209843409],[-1.61562742632442,53.3508491145674],[-1.62560375202567,53.3520618974478],[-1.62834835808633,53.3537990291449],[-1.63059203910695,53.3561609731087],[-1.65525679107809,53.3633383795649],[-1.66040584173061,53.3651184151802],[-1.66354854039897,53.3665951654561],[-1.66417260669709,53.3671227833939],[-1.66391328109898,53.3693314591793],[-1.66270790372945,53.3731626003718],[-1.66333271445206,53.3741737638091],[-1.66219238797727,53.3752501350022],[-1.66177678855332,53.3762934087013],[-1.65602142659798,53.3817087927163],[-1.6535305185542,53.3848521072128],[-1.65381782187416,53.3919108262078],[-1.65471696830255,53.3930270614854],[-1.65900786910491,53.3934951370951],[-1.66511276765444,53.3935348424693],[-1.66808924679528,53.3930711909017],[-1.67297983004925,53.3969426076696],[-1.68182866242726,53.4017807007349],[-1.69452121635221,53.4011611620031],[-1.70496532088341,53.405055973056],[-1.70397337836857,53.4058140140763],[-1.70412631467032,53.4082852724032],[-1.70302363981057,53.4104550910383],[-1.70385099925235,53.412633275219],[-1.70323415116834,53.4137221106404],[-1.70436472917241,53.415349119984],[-1.70458852421461,53.415186037444],[-1.70853223310302,53.4173394733109],[-1.71088128212395,53.4175123884495],[-1.71401851353611,53.4190704404224],[-1.71831942932279,53.4194266681478],[-1.72334830720572,53.4189161079241],[-1.72515314802139,53.4176384963284],[-1.72982652165353,53.4159575014792],[-1.73239909899213,53.4171839235129],[-1.73507527665797,53.419692282406],[-1.73976196210261,53.4209879155366],[-1.74500876632115,53.4252902860069],[-1.74673700635097,53.4261937228229],[-1.74625804926374,53.4277827793713],[-1.74472164437449,53.4287583569776],[-1.74412226258662,53.429573274228],[-1.74427301019628,53.4312966588394],[-1.744896951065,53.4324189020744],[-1.74856115477405,53.4356023047388],[-1.74972822931623,53.4391192589743],[-1.74931285425487,53.4398725818095],[-1.74711435294393,53.4410013562054],[-1.74681921116965,53.4417719987195],[-1.74546488711479,53.442688659689],[-1.74368084896011,53.4449553368373],[-1.74390857387959,53.4463922324254],[-1.74466032125399,53.447309688896],[-1.74427562227103,53.4484468505894],[-1.74657001211149,53.4512732293061],[-1.74621292282312,53.4520706909481],[-1.74712739150079,53.4542774987643],[-1.74665786908208,53.4555016431486],[-1.74816658827345,53.4573303128506],[-1.74708158967666,53.4579383479408],[-1.74702255771102,53.45926498546],[-1.74621698604013,53.4600029942375],[-1.74648681763005,53.4607136259593],[-1.74532296726174,53.4621753952098],[-1.74782701409854,53.4640628659919],[-1.75215396997294,53.4649240255104],[-1.75365760456675,53.4648515586374],[-1.75419852462844,53.4643017494895],[-1.75571134202338,53.4639227689059],[-1.75818784719506,53.4638909533636],[-1.75939769370836,53.4635608255617],[-1.76468977606728,53.4639524308828],[-1.76843734147339,53.4647669318847],[-1.76995052116709,53.4657271065197],[-1.77049532596529,53.4669326091611],[-1.77272421611982,53.4670177326613],[-1.77619997596228,53.4683257805663],[-1.77703991809547,53.4698751502478],[-1.77804023910635,53.4704540765456],[-1.77796944670972,53.4724789831544],[-1.77906318250375,53.4742211926421],[-1.78080845688709,53.4749695007521],[-1.78570271699122,53.4757190546638],[-1.78644580638811,53.4753499877463],[-1.79070631276659,53.475691059587],[-1.79090066308802,53.4760068902117],[-1.79110661271706,53.4757816157479],[-1.79233016362361,53.476683489792],[-1.79276492938771,53.4765098281567],[-1.79342043312516,53.4771059990963],[-1.79431922100726,53.4772594945143],[-1.79531874416521,53.4783999746398],[-1.79684699703222,53.4789284229726],[-1.7983278066268,53.4786747405807],[-1.80143009642957,53.4809625497659],[-1.79208019338314,53.4819088562721],[-1.79028390872328,53.482543897858],[-1.78695920881159,53.4844570468019],[-1.78363475618131,53.4847791633615],[-1.78053265212195,53.4843465719821],[-1.77386667434796,53.4825050426341],[-1.77103428121388,53.4824052839963],[-1.7659410011809,53.4810426945147],[-1.76398015663193,53.4813983823045],[-1.76277637627534,53.4810948951319],[-1.76189847789761,53.4812495125657],[-1.76051643649985,53.4807641308185],[-1.7574605429372,53.4810501116634],[-1.75108279950756,53.4799071778423],[-1.74911670496407,53.4798626367099],[-1.74647743973438,53.4789986987653],[-1.74312321831242,53.4792791944052],[-1.74205557977436,53.4789218617132],[-1.74142771871581,53.4781025640539],[-1.74049038049994,53.4778713514105],[-1.73967801413894,53.4771819602507],[-1.7385030596915,53.4771389563763],[-1.73632530070473,53.4794217664779],[-1.73645808109141,53.4806103485718],[-1.73767118003426,53.4815711685049],[-1.73611597802976,53.4837896951102],[-1.73538567886341,53.4866041720227],[-1.73357851070062,53.4880930940809],[-1.73198288405881,53.4908966458687],[-1.7303659519463,53.4913218381823],[-1.72280754949395,53.4915293009971],[-1.72143006927075,53.4919773890827],[-1.72150418808184,53.4926337092445],[-1.72003803167461,53.4923480576353],[-1.71951871967198,53.4929293122374],[-1.71725556598046,53.4939396854048],[-1.71607597294494,53.4940825660427],[-1.71566118739699,53.4954693638566],[-1.71365442772668,53.4966681690139],[-1.71406551700521,53.4978583370375],[-1.71229309359326,53.4986962645472],[-1.71280239204973,53.499623295895],[-1.71184692737289,53.4998098029759],[-1.7110094090154,53.5012594576642],[-1.70727905580846,53.5013555678937],[-1.70606619739867,53.5016905674736],[-1.70546730057955,53.5011012469714],[-1.70444532732586,53.5017270302188],[-1.7033047908741,53.5018464286825],[-1.70298234629538,53.5028982362541],[-1.70108876364153,53.5031209751318],[-1.69845750935049,53.502541825241],[-1.69337126022761,53.500188319715],[-1.69071129936715,53.4994597593303],[-1.69051560696996,53.4998430423348],[-1.68897608906294,53.4996916990772],[-1.68879631378782,53.4991204513652],[-1.68787897043691,53.4990282141354],[-1.68446725821812,53.4994677893928],[-1.6839847191014,53.4988867525308],[-1.6811157315059,53.4999272839228],[-1.68044939311894,53.5005222660355],[-1.66836778834548,53.5005722817037],[-1.6588426425518,53.4983954203481],[-1.6550899928061,53.4967963714088],[-1.64929138691473,53.4951012534882],[-1.64126140383285,53.4940805769927],[-1.63898697059797,53.4933663386248],[-1.633832964151,53.4923906639202],[-1.62326076980052,53.4920899027767],[-1.61494721540958,53.4905676561585],[-1.61445802541691,53.4931539768917],[-1.61150937124132,53.4932064256992],[-1.60960376357239,53.4922555029107],[-1.60935302652044,53.4916686118402],[-1.60659084349599,53.4929071721749],[-1.60237072877647,53.4915916519119],[-1.60222759871376,53.4919075740575],[-1.59036317466649,53.4899906950013],[-1.58701990997041,53.4881598952477],[-1.58229495597931,53.4875655436729],[-1.5763542628994,53.486166821012],[-1.57488936237473,53.4860204739906],[-1.569153593439,53.4864683750603],[-1.56575648381842,53.4860408197758],[-1.56641543195287,53.4858571887766],[-1.56521357527702,53.485483436358],[-1.56505969236984,53.4849049043583],[-1.5622967537235,53.4843735133825],[-1.5611597945175,53.4844376625241],[-1.56107292180626,53.4839574065467],[-1.55892969677418,53.4833940510935],[-1.55774365858707,53.4822427293653],[-1.55735896426504,53.4802656645051],[-1.5496581099153,53.4784942354161],[-1.54656659121061,53.4746300648851],[-1.54422288989439,53.4727497838896],[-1.54362863536164,53.4726675533716],[-1.5444863076146,53.4722106363294],[-1.54812048058338,53.4713317787728],[-1.54537329927907,53.4698490685083],[-1.54234466881938,53.4650179494542],[-1.53947447860849,53.4625764587762],[-1.53904691905296,53.4617154899714],[-1.53986157038236,53.4616026929812],[-1.54031784676162,53.4610507238251],[-1.53945462488227,53.4577288949468],[-1.54055018395719,53.4569753011512],[-1.54026087571888,53.4561589852868],[-1.54114296590892,53.4559196460642],[-1.55138413683591,53.455454920319],[-1.55254929277113,53.4527798305853],[-1.54873433905802,53.4511295706926],[-1.5473833460355,53.4498859513614],[-1.55043677144614,53.4476295353118],[-1.55126185631079,53.4462043893524],[-1.54811200444402,53.444790318912],[-1.54618420191477,53.4418878555464],[-1.54080134471214,53.440980206716],[-1.53740462026711,53.4408782081293],[-1.53498354669671,53.4399358393005],[-1.53398944131021,53.4386106797219],[-1.5329268641654,53.4383153110999],[-1.53217244984442,53.4383393294906],[-1.53193637878857,53.4387222025803],[-1.52771716423158,53.4385529061084],[-1.5263640314224,53.4390742458537],[-1.52554235894585,53.4402629137199],[-1.52458837709233,53.4404919684709],[-1.52374673796404,53.4413065469561],[-1.5232419949581,53.4430807269859],[-1.52059574191839,53.444641398762],[-1.52067003372621,53.4457922663175],[-1.51980148868259,53.4471154945207],[-1.51916260563861,53.4472828642201],[-1.51833245776908,53.4493190069783],[-1.51653262662157,53.4502914883891],[-1.51317073618626,53.4514230214298],[-1.51492574667192,53.4538660883528],[-1.51818242076789,53.4572418112322],[-1.51670908956319,53.4579406441758],[-1.51739747874521,53.45832721242],[-1.51503008678527,53.4596389509339],[-1.51631303542247,53.4605852430425],[-1.51486216559401,53.4618054274082],[-1.51481383416335,53.4636667748752],[-1.51177871851371,53.4657587129068],[-1.50785532071994,53.4666207964307],[-1.50757662856172,53.4684407628277],[-1.50500231402965,53.4717766600671],[-1.50016740489798,53.4756576289746],[-1.495239289688,53.4803568494939],[-1.4946189031544,53.4810742818059],[-1.49525089852033,53.4852161607491],[-1.49474873428307,53.4862692658824],[-1.49158858383921,53.4866414870523],[-1.48748192085533,53.4860109673675],[-1.48405438090886,53.4844421249478],[-1.47982630337263,53.4809623138293],[-1.47769498540093,53.4799130767966],[-1.47589589253067,53.479424368468],[-1.4666714279294,53.4779966200187],[-1.46577083421564,53.4783278705689],[-1.46386840720898,53.4780407045187],[-1.46164502455611,53.4763391014841],[-1.46031711125827,53.4757883854543],[-1.45652442031213,53.4719348938311],[-1.4552192140429,53.4717509446572]]]}}]}